start=new Date('2023-04-19T00:00:00.000Z').valueOf();
sats=[{"BSTAR":"0.00003217800000","TIME_SYSTEM":"UTC","TLE_LINE2":"2 55371  43.0030 290.3582 0001474 271.8216  88.2457 15.02542497 13653","FILE":"3889987","OBJECT_TYPE":"PAYLOAD","MEAN_MOTION_DOT":"0.00000231","LAUNCH_DATE":"2023-01-26","TLE_LINE1":"1 55371U 23013AS  23108.83568647  .00000231  00000-0  32178-4 0  9992","EPHEMERIS_TYPE":"0","MEAN_ANOMALY":"88.2457","OBJECT_ID":"2023-013AS","MEAN_ELEMENT_THEORY":"SGP4","REF_FRAME":"TEME","SEMIMAJOR_AXIS":"6937.197","ECCENTRICITY":"0.00014740","SITE":"AFETR","OBJECT_NAME":"STARLINK-5590","PERIAPSIS":"558.039","GP_ID":"230334160","DECAY_DATE":null,"CENTER_NAME":"EARTH","ARG_OF_PERICENTER":"271.8216","REV_AT_EPOCH":"1365","COUNTRY_CODE":"US","EPOCH":"2023-04-18T20:03:23.311008","ELEMENT_SET_NO":"999","APOAPSIS":"560.084","NORAD_CAT_ID":"55371","RA_OF_ASC_NODE":"290.3582","MEAN_MOTION":"15.02542497","CLASSIFICATION_TYPE":"U","PERIOD":"95.838","RCS_SIZE":"LARGE","INCLINATION":"43.0030","MEAN_MOTION_DDOT":"0.0000000000000"},{"MEAN_ANOMALY":"96.9884","MEAN_ELEMENT_THEORY":"SGP4","OBJECT_ID":"2023-013AT","REF_FRAME":"TEME","SEMIMAJOR_AXIS":"6937.192","ECCENTRICITY":"0.00015950","SITE":"AFETR","OBJECT_NAME":"STARLINK-5568","PERIAPSIS":"557.951","TLE_LINE2":"2 55372  43.0023 290.3980 0001595 263.0777  96.9884 15.02543841 12739","TIME_SYSTEM":"UTC","FILE":"3889987","OBJECT_TYPE":"PAYLOAD","BSTAR":"-0.00005276300000","EPHEMERIS_TYPE":"0","MEAN_MOTION_DOT":"-0.00000917","LAUNCH_DATE":"2023-01-26","TLE_LINE1":"1 55372U 23013AT  23108.84123673 -.00000917  00000-0 -52763-4 0  9995","CLASSIFICATION_TYPE":"U","PERIOD":"95.837","RA_OF_ASC_NODE":"290.3980","MEAN_MOTION":"15.02543841","INCLINATION":"43.0023","RCS_SIZE":"LARGE","MEAN_MOTION_DDOT":"0.0000000000000","CENTER_NAME":"EARTH","ARG_OF_PERICENTER":"263.0777","REV_AT_EPOCH":"1273","COUNTRY_CODE":"US","DECAY_DATE":null,"GP_ID":"230333413","APOAPSIS":"560.164","NORAD_CAT_ID":"55372","EPOCH":"2023-04-18T20:11:22.853472","ELEMENT_SET_NO":"999"},{"EPHEMERIS_TYPE":"0","MEAN_MOTION_DOT":"0.00000771","LAUNCH_DATE":"2023-01-26","TLE_LINE1":"1 55373U 23013AU  23108.83346644  .00000771  00000-0  72121-4 0  9996","TIME_SYSTEM":"UTC","TLE_LINE2":"2 55373  43.0031 290.3406 0001280 260.4998  99.5699 15.02540389 12736","FILE":"3889987","OBJECT_TYPE":"PAYLOAD","BSTAR":"0.00007212100000","SEMIMAJOR_AXIS":"6937.203","ECCENTRICITY":"0.00012800","SITE":"AFETR","OBJECT_NAME":"STARLINK-5581","PERIAPSIS":"558.180","MEAN_ANOMALY":"99.5699","OBJECT_ID":"2023-013AU","MEAN_ELEMENT_THEORY":"SGP4","REF_FRAME":"TEME","APOAPSIS":"559.956","NORAD_CAT_ID":"55373","EPOCH":"2023-04-18T20:00:11.500416","ELEMENT_SET_NO":"999","ARG_OF_PERICENTER":"260.4998","CENTER_NAME":"EARTH","REV_AT_EPOCH":"1273","COUNTRY_CODE":"US","DECAY_DATE":null,"GP_ID":"230333162","INCLINATION":"43.0031","RCS_SIZE":"LARGE","MEAN_MOTION_DDOT":"0.0000000000000","CLASSIFICATION_TYPE":"U","PERIOD":"95.838","RA_OF_ASC_NODE":"290.3406","MEAN_MOTION":"15.02540389"},{"RCS_SIZE":"LARGE","MEAN_MOTION_DDOT":"0.0000000000000","INCLINATION":"43.0002","PERIOD":"95.837","CLASSIFICATION_TYPE":"U","MEAN_MOTION":"15.02546350","RA_OF_ASC_NODE":"290.7415","NORAD_CAT_ID":"55374","APOAPSIS":"560.158","ELEMENT_SET_NO":"999","EPOCH":"2023-04-18T18:32:27.481920","REV_AT_EPOCH":"1272","COUNTRY_CODE":"US","CENTER_NAME":"EARTH","ARG_OF_PERICENTER":"270.5761","DECAY_DATE":null,"GP_ID":"230334412","PERIAPSIS":"557.941","SEMIMAJOR_AXIS":"6937.185","ECCENTRICITY":"0.00015980","SITE":"AFETR","OBJECT_NAME":"STARLINK-5578","MEAN_ELEMENT_THEORY":"SGP4","OBJECT_ID":"2023-013AV","REF_FRAME":"TEME","MEAN_ANOMALY":"89.4898","EPHEMERIS_TYPE":"0","TLE_LINE1":"1 55374U 23013AV  23108.77254030  .00006161  00000-0  47060-3 0  9999","MEAN_MOTION_DOT":"0.00006161","LAUNCH_DATE":"2023-01-26","FILE":"3889987","OBJECT_TYPE":"PAYLOAD","TIME_SYSTEM":"UTC","TLE_LINE2":"2 55374  43.0002 290.7415 0001598 270.5761  89.4898 15.02546350 12723","BSTAR":"0.00047060000000"},{"EPHEMERIS_TYPE":"0","MEAN_MOTION_DOT":"0.00003042","LAUNCH_DATE":"2023-01-26","TLE_LINE1":"1 55375U 23013AW  23108.82791720  .00003042  00000-0  24010-3 0  9993","TIME_SYSTEM":"UTC","TLE_LINE2":"2 55375  43.0023 290.2994 0001801 265.7420  94.3216 15.02543211 12732","FILE":"3889987","OBJECT_TYPE":"PAYLOAD","BSTAR":"0.00024010000000","SEMIMAJOR_AXIS":"6937.194","SITE":"AFETR","OBJECT_NAME":"STARLINK-5588","ECCENTRICITY":"0.00018010","PERIAPSIS":"557.810","MEAN_ANOMALY":"94.3216","OBJECT_ID":"2023-013AW","MEAN_ELEMENT_THEORY":"SGP4","REF_FRAME":"TEME","APOAPSIS":"560.309","NORAD_CAT_ID":"55375","EPOCH":"2023-04-18T19:52:12.046080","ELEMENT_SET_NO":"999","ARG_OF_PERICENTER":"265.7420","CENTER_NAME":"EARTH","REV_AT_EPOCH":"1273","COUNTRY_CODE":"US","DECAY_DATE":null,"GP_ID":"230334660","INCLINATION":"43.0023","RCS_SIZE":"LARGE","MEAN_MOTION_DDOT":"0.0000000000000","CLASSIFICATION_TYPE":"U","PERIOD":"95.838","RA_OF_ASC_NODE":"290.2994","MEAN_MOTION":"15.02543211"},{"PERIOD":"93.406","CLASSIFICATION_TYPE":"U","MEAN_MOTION":"15.41658442","RA_OF_ASC_NODE":"267.5037","MEAN_MOTION_DDOT":"0.0000000000000","RCS_SIZE":"LARGE","INCLINATION":"42.9988","REV_AT_EPOCH":"130","COUNTRY_CODE":"US","ARG_OF_PERICENTER":"276.2272","CENTER_NAME":"EARTH","GP_ID":"230332914","DECAY_DATE":null,"NORAD_CAT_ID":"55376","APOAPSIS":"442.249","ELEMENT_SET_NO":"999","EPOCH":"2023-04-18T22:00:00.999936","MEAN_ELEMENT_THEORY":"SGP4","OBJECT_ID":"2023-013AX","REF_FRAME":"TEME","MEAN_ANOMALY":"85.4128","PERIAPSIS":"440.183","SEMIMAJOR_AXIS":"6819.351","SITE":"AFETR","ECCENTRICITY":"0.00015150","OBJECT_NAME":"STARLINK-5586","FILE":"3889987","OBJECT_TYPE":"PAYLOAD","TIME_SYSTEM":"UTC","TLE_LINE2":"2 55376  42.9988 267.5037 0001515 276.2272  85.4128 15.41658442  1300","BSTAR":"-0.02224400000000","EPHEMERIS_TYPE":"0","TLE_LINE1":"1 55376U 23013AX  23108.91667824 -.00883585  00000-0 -22244-1 0  9996","MEAN_MOTION_DOT":"-0.00883585","LAUNCH_DATE":"2023-01-26"},{"TLE_LINE1":"1 55377U 23013AY  23108.88105852  .00005953  00000-0  45506-3 0  9992","MEAN_MOTION_DOT":"0.00005953","LAUNCH_DATE":"2023-01-26","EPHEMERIS_TYPE":"0","BSTAR":"0.00045506000000","FILE":"3889987","OBJECT_TYPE":"PAYLOAD","TIME_SYSTEM":"UTC","TLE_LINE2":"2 55377  43.0011 289.8352 0001687 261.7050  98.3600 15.02563535 12743","PERIAPSIS":"557.826","SEMIMAJOR_AXIS":"6937.132","ECCENTRICITY":"0.00016870","SITE":"AFETR","OBJECT_NAME":"STARLINK-5567","OBJECT_ID":"2023-013AY","MEAN_ELEMENT_THEORY":"SGP4","REF_FRAME":"TEME","MEAN_ANOMALY":"98.3600","ELEMENT_SET_NO":"999","EPOCH":"2023-04-18T21:08:43.456128","NORAD_CAT_ID":"55377","APOAPSIS":"560.167","GP_ID":"230333662","DECAY_DATE":null,"REV_AT_EPOCH":"1274","COUNTRY_CODE":"US","ARG_OF_PERICENTER":"261.7050","CENTER_NAME":"EARTH","RCS_SIZE":"LARGE","MEAN_MOTION_DDOT":"0.0000000000000","INCLINATION":"43.0011","MEAN_MOTION":"15.02563535","RA_OF_ASC_NODE":"289.8352","PERIOD":"95.836","CLASSIFICATION_TYPE":"U"},{"BSTAR":"0.00022631000000","TIME_SYSTEM":"UTC","TLE_LINE2":"2 55378  43.0021 290.3253 0001657 281.7225  78.3432 15.02545681 12737","FILE":"3889987","OBJECT_TYPE":"PAYLOAD","MEAN_MOTION_DOT":"0.00002855","LAUNCH_DATE":"2023-01-26","TLE_LINE1":"1 55378U 23013AZ  23108.83124721  .00002855  00000-0  22631-3 0  9996","EPHEMERIS_TYPE":"0","MEAN_ANOMALY":"78.3432","OBJECT_ID":"2023-013AZ","MEAN_ELEMENT_THEORY":"SGP4","REF_FRAME":"TEME","SEMIMAJOR_AXIS":"6937.187","SITE":"AFETR","ECCENTRICITY":"0.00016570","OBJECT_NAME":"STARLINK-5572","PERIAPSIS":"557.902","GP_ID":"230333913","DECAY_DATE":null,"ARG_OF_PERICENTER":"281.7225","CENTER_NAME":"EARTH","REV_AT_EPOCH":"1273","COUNTRY_CODE":"US","EPOCH":"2023-04-18T19:56:59.758944","ELEMENT_SET_NO":"999","APOAPSIS":"560.201","NORAD_CAT_ID":"55378","RA_OF_ASC_NODE":"290.3253","MEAN_MOTION":"15.02545681","CLASSIFICATION_TYPE":"U","PERIOD":"95.837","MEAN_MOTION_DDOT":"0.0000000000000","RCS_SIZE":"LARGE","INCLINATION":"43.0021"},{"NORAD_CAT_ID":"55379","APOAPSIS":"560.013","ELEMENT_SET_NO":"999","EPOCH":"2023-04-18T19:41:00.711168","REV_AT_EPOCH":"1273","COUNTRY_CODE":"US","ARG_OF_PERICENTER":"271.7896","CENTER_NAME":"EARTH","DECAY_DATE":null,"GP_ID":"230334161","INCLINATION":"43.0019","RCS_SIZE":"LARGE","MEAN_MOTION_DDOT":"0.0000000000000","PERIOD":"95.838","CLASSIFICATION_TYPE":"U","MEAN_MOTION":"15.02541407","RA_OF_ASC_NODE":"290.2385","EPHEMERIS_TYPE":"0","TLE_LINE1":"1 55379U 23013BA  23108.82014712  .00001222  00000-0  10548-3 0  9995","MEAN_MOTION_DOT":"0.00001222","LAUNCH_DATE":"2023-01-26","FILE":"3889987","OBJECT_TYPE":"PAYLOAD","TLE_LINE2":"2 55379  43.0019 290.2385 0001367 271.7896  88.2790 15.02541407 12730","TIME_SYSTEM":"UTC","BSTAR":"0.00010548000000","PERIAPSIS":"558.117","SEMIMAJOR_AXIS":"6937.200","SITE":"AFETR","OBJECT_NAME":"STARLINK-5569","ECCENTRICITY":"0.00013670","OBJECT_ID":"2023-013BA","MEAN_ELEMENT_THEORY":"SGP4","REF_FRAME":"TEME","MEAN_ANOMALY":"88.2790"},{"ELEMENT_SET_NO":"999","EPOCH":"2023-04-18T22:00:00.999936","NORAD_CAT_ID":"55380","APOAPSIS":"441.992","DECAY_DATE":null,"GP_ID":"230333414","COUNTRY_CODE":"US","REV_AT_EPOCH":"130","CENTER_NAME":"EARTH","ARG_OF_PERICENTER":"282.1908","RCS_SIZE":"LARGE","MEAN_MOTION_DDOT":"0.0000000000000","INCLINATION":"42.9988","MEAN_MOTION":"15.41746477","RA_OF_ASC_NODE":"267.4977","PERIOD":"93.401","CLASSIFICATION_TYPE":"U","TLE_LINE1":"1 55380U 23013BB  23108.91667824 -.00883064  00000-0 -22164-1 0  9994","LAUNCH_DATE":"2023-01-26","MEAN_MOTION_DOT":"-0.00883064","EPHEMERIS_TYPE":"0","BSTAR":"-0.02216400000000","OBJECT_TYPE":"PAYLOAD","FILE":"3889987","TLE_LINE2":"2 55380  42.9988 267.4977 0001518 282.1908  81.9004 15.41746477  1302","TIME_SYSTEM":"UTC","PERIAPSIS":"439.922","ECCENTRICITY":"0.00015180","SITE":"AFETR","OBJECT_NAME":"STARLINK-5571","SEMIMAJOR_AXIS":"6819.092","REF_FRAME":"TEME","OBJECT_ID":"2023-013BB","MEAN_ELEMENT_THEORY":"SGP4","MEAN_ANOMALY":"81.9004"}];
